[
  {
    "OBJECT_NAME": "STARLINK-33902",
    "OBJECT_ID": "25225L",
    "EPOCH": "2025-11-11T03:32:51.040608",
    "MEAN_MOTION": 15.49357439,
    "ECCENTRICITY": 0.0001259,
    "INCLINATION": 53.1611,
    "RA_OF_ASC_NODE": 357.3725,
    "ARG_OF_PERICENTER": 107.0185,
    "MEAN_ANOMALY": 253.0962,
    "EPHEMERIS_TYPE": 0,
    "CLASSIFICATION_TYPE": "U",
    "NORAD_CAT_ID": 65920,
    "ELEMENT_SET_NO": 999,
    "REV_AT_EPOCH": 624,
    "BSTAR": 0.0024618,
    "MEAN_MOTION_DOT": 0.00139167,
    "MEAN_MOTION_DDOT": 0.0,
    "TLE_LINE1": "1 65920U 25225L   25315.14781297  .00139167  00000+0  24618-2 0  9992",
    "TLE_LINE2": "2 65920  53.1611 357.3725 0001259 107.0185 253.0962 15.49357439  6241",
    "COMMENT": "Grouped by shell and plane from TLE"
  },
  {
    "OBJECT_NAME": "STARLINK-35530",
    "OBJECT_ID": "25225M",
    "EPOCH": "2025-11-11T06:38:08.421504",
    "MEAN_MOTION": 15.49316189,
    "ECCENTRICITY": 0.0001099,
    "INCLINATION": 53.1601,
    "RA_OF_ASC_NODE": 356.7515,
    "ARG_OF_PERICENTER": 62.8487,
    "MEAN_ANOMALY": 297.2634,
    "EPHEMERIS_TYPE": 0,
    "CLASSIFICATION_TYPE": "U",
    "NORAD_CAT_ID": 65921,
    "ELEMENT_SET_NO": 999,
    "REV_AT_EPOCH": 626,
    "BSTAR": 0.0022707,
    "MEAN_MOTION_DOT": 0.00127957,
    "MEAN_MOTION_DDOT": 0.0,
    "TLE_LINE1": "1 65921U 25225M   25315.27648636  .00127957  00000+0  22707-2 0  9997",
    "TLE_LINE2": "2 65921  53.1601 356.7515 0001099  62.8487 297.2634 15.49316189  6261",
    "COMMENT": "Grouped by shell and plane from TLE"
  },
  {
    "OBJECT_NAME": "STARLINK-35544",
    "OBJECT_ID": "25225N",
    "EPOCH": "2025-11-11T06:37:38.759520",
    "MEAN_MOTION": 15.49324882,
    "ECCENTRICITY": 0.0001431,
    "INCLINATION": 53.1613,
    "RA_OF_ASC_NODE": 356.7501,
    "ARG_OF_PERICENTER": 61.4979,
    "MEAN_ANOMALY": 298.6174,
    "EPHEMERIS_TYPE": 0,
    "CLASSIFICATION_TYPE": "U",
    "NORAD_CAT_ID": 65922,
    "ELEMENT_SET_NO": 999,
    "REV_AT_EPOCH": 626,
    "BSTAR": 0.0023761,
    "MEAN_MOTION_DOT": 0.00134067,
    "MEAN_MOTION_DDOT": 0.0,
    "TLE_LINE1": "1 65922U 25225N   25315.27614305  .00134067  00000+0  23761-2 0  9995",
    "TLE_LINE2": "2 65922  53.1613 356.7501 0001431  61.4979 298.6174 15.49324882  6264",
    "COMMENT": "Grouped by shell and plane from TLE"
  },
  {
    "OBJECT_NAME": "STARLINK-35484",
    "OBJECT_ID": "25225P",
    "EPOCH": "2025-11-11T06:37:09.031872",
    "MEAN_MOTION": 15.49325908,
    "ECCENTRICITY": 0.0001148,
    "INCLINATION": 53.1609,
    "RA_OF_ASC_NODE": 356.7479,
    "ARG_OF_PERICENTER": 84.7458,
    "MEAN_ANOMALY": 275.3682,
    "EPHEMERIS_TYPE": 0,
    "CLASSIFICATION_TYPE": "U",
    "NORAD_CAT_ID": 65923,
    "ELEMENT_SET_NO": 999,
    "REV_AT_EPOCH": 626,
    "BSTAR": 0.0027155,
    "MEAN_MOTION_DOT": 0.00153673,
    "MEAN_MOTION_DDOT": 0.0,
    "TLE_LINE1": "1 65923U 25225P   25315.27579898  .00153673  00000+0  27155-2 0  9998",
    "TLE_LINE2": "2 65923  53.1609 356.7479 0001148  84.7458 275.3682 15.49325908  6265",
    "COMMENT": "Grouped by shell and plane from TLE"
  },
  {
    "OBJECT_NAME": "STARLINK-34994",
    "OBJECT_ID": "25225Q",
    "EPOCH": "2025-11-11T03:30:52.062624",
    "MEAN_MOTION": 15.49415477,
    "ECCENTRICITY": 0.0001157,
    "INCLINATION": 53.1603,
    "RA_OF_ASC_NODE": 357.362,
    "ARG_OF_PERICENTER": 105.8226,
    "MEAN_ANOMALY": 254.2911,
    "EPHEMERIS_TYPE": 0,
    "CLASSIFICATION_TYPE": "U",
    "NORAD_CAT_ID": 65924,
    "ELEMENT_SET_NO": 999,
    "REV_AT_EPOCH": 624,
    "BSTAR": 0.0022530000000000002,
    "MEAN_MOTION_DOT": 0.00127397,
    "MEAN_MOTION_DDOT": 0.0,
    "TLE_LINE1": "1 65924U 25225Q   25315.14643591  .00127397  00000+0  22530-2 0  9993",
    "TLE_LINE2": "2 65924  53.1603 357.3620 0001157 105.8226 254.2911 15.49415477  6243",
    "COMMENT": "Grouped by shell and plane from TLE"
  },
  {
    "OBJECT_NAME": "STARLINK-35458",
    "OBJECT_ID": "25225R",
    "EPOCH": "2025-11-11T03:29:52.957248",
    "MEAN_MOTION": 15.49378244,
    "ECCENTRICITY": 0.00012,
    "INCLINATION": 53.1607,
    "RA_OF_ASC_NODE": 357.3581,
    "ARG_OF_PERICENTER": 74.7727,
    "MEAN_ANOMALY": 285.3414,
    "EPHEMERIS_TYPE": 0,
    "CLASSIFICATION_TYPE": "U",
    "NORAD_CAT_ID": 65925,
    "ELEMENT_SET_NO": 999,
    "REV_AT_EPOCH": 624,
    "BSTAR": 0.0015187,
    "MEAN_MOTION_DOT": 0.00085147,
    "MEAN_MOTION_DDOT": 0.0,
    "TLE_LINE1": "1 65925U 25225R   25315.14575182  .00085147  00000+0  15187-2 0  9990",
    "TLE_LINE2": "2 65925  53.1607 357.3581 0001200  74.7727 285.3414 15.49378244  6246",
    "COMMENT": "Grouped by shell and plane from TLE"
  },
  {
    "OBJECT_NAME": "STARLINK-35492",
    "OBJECT_ID": "25225S",
    "EPOCH": "2025-11-11T06:36:10.589184",
    "MEAN_MOTION": 15.49316635,
    "ECCENTRICITY": 0.0001176,
    "INCLINATION": 53.1611,
    "RA_OF_ASC_NODE": 356.7432,
    "ARG_OF_PERICENTER": 102.2107,
    "MEAN_ANOMALY": 257.9034,
    "EPHEMERIS_TYPE": 0,
    "CLASSIFICATION_TYPE": "U",
    "NORAD_CAT_ID": 65926,
    "ELEMENT_SET_NO": 999,
    "REV_AT_EPOCH": 626,
    "BSTAR": 0.0014873,
    "MEAN_MOTION_DOT": 0.00083175,
    "MEAN_MOTION_DDOT": 0.0,
    "TLE_LINE1": "1 65926U 25225S   25315.27512256  .00083175  00000+0  14873-2 0  9998",
    "TLE_LINE2": "2 65926  53.1611 356.7432 0001176 102.2107 257.9034 15.49316635  6262",
    "COMMENT": "Grouped by shell and plane from TLE"
  },
  {
    "OBJECT_NAME": "STARLINK-35494",
    "OBJECT_ID": "25225T",
    "EPOCH": "2025-11-11T06:35:10.282848",
    "MEAN_MOTION": 15.49347363,
    "ECCENTRICITY": 9.67e-05,
    "INCLINATION": 53.1608,
    "RA_OF_ASC_NODE": 356.7367,
    "ARG_OF_PERICENTER": 83.3071,
    "MEAN_ANOMALY": 276.8048,
    "EPHEMERIS_TYPE": 0,
    "CLASSIFICATION_TYPE": "U",
    "NORAD_CAT_ID": 65927,
    "ELEMENT_SET_NO": 999,
    "REV_AT_EPOCH": 626,
    "BSTAR": 0.0024158,
    "MEAN_MOTION_DOT": 0.00136467,
    "MEAN_MOTION_DDOT": 0.0,
    "TLE_LINE1": "1 65927U 25225T   25315.27442457  .00136467  00000+0  24158-2 0  9994",
    "TLE_LINE2": "2 65927  53.1608 356.7367 0000967  83.3071 276.8048 15.49347363  6269",
    "COMMENT": "Grouped by shell and plane from TLE"
  },
  {
    "OBJECT_NAME": "STARLINK-35493",
    "OBJECT_ID": "25225U",
    "EPOCH": "2025-11-11T06:34:10.958016",
    "MEAN_MOTION": 15.49338608,
    "ECCENTRICITY": 9.65e-05,
    "INCLINATION": 53.1611,
    "RA_OF_ASC_NODE": 356.7315,
    "ARG_OF_PERICENTER": 77.593,
    "MEAN_ANOMALY": 282.5187,
    "EPHEMERIS_TYPE": 0,
    "CLASSIFICATION_TYPE": "U",
    "NORAD_CAT_ID": 65928,
    "ELEMENT_SET_NO": 999,
    "REV_AT_EPOCH": 626,
    "BSTAR": 0.0019442,
    "MEAN_MOTION_DOT": 0.00109319,
    "MEAN_MOTION_DDOT": 0.0,
    "TLE_LINE1": "1 65928U 25225U   25315.27373794  .00109319  00000+0  19442-2 0  9998",
    "TLE_LINE2": "2 65928  53.1611 356.7315 0000965  77.5930 282.5187 15.49338608  6264",
    "COMMENT": "Grouped by shell and plane from TLE"
  },
  {
    "OBJECT_NAME": "STARLINK-35175",
    "OBJECT_ID": "25225V",
    "EPOCH": "2025-11-11T06:33:41.339232",
    "MEAN_MOTION": 15.49334072,
    "ECCENTRICITY": 0.0001218,
    "INCLINATION": 53.1598,
    "RA_OF_ASC_NODE": 356.7303,
    "ARG_OF_PERICENTER": 74.6505,
    "MEAN_ANOMALY": 285.4639,
    "EPHEMERIS_TYPE": 0,
    "CLASSIFICATION_TYPE": "U",
    "NORAD_CAT_ID": 65929,
    "ELEMENT_SET_NO": 999,
    "REV_AT_EPOCH": 626,
    "BSTAR": 0.0011734,
    "MEAN_MOTION_DOT": 0.00065418,
    "MEAN_MOTION_DDOT": 0.0,
    "TLE_LINE1": "1 65929U 25225V   25315.27339513  .00065418  00000+0  11734-2 0  9997",
    "TLE_LINE2": "2 65929  53.1598 356.7303 0001218  74.6505 285.4639 15.49334072  6269",
    "COMMENT": "Grouped by shell and plane from TLE"
  },
  {
    "OBJECT_NAME": "STARLINK-35513",
    "OBJECT_ID": "25225W",
    "EPOCH": "2025-11-11T06:34:40.645056",
    "MEAN_MOTION": 15.49350852,
    "ECCENTRICITY": 0.0001146,
    "INCLINATION": 53.1606,
    "RA_OF_ASC_NODE": 356.7339,
    "ARG_OF_PERICENTER": 78.4347,
    "MEAN_ANOMALY": 281.6791,
    "EPHEMERIS_TYPE": 0,
    "CLASSIFICATION_TYPE": "U",
    "NORAD_CAT_ID": 65930,
    "ELEMENT_SET_NO": 999,
    "REV_AT_EPOCH": 626,
    "BSTAR": 0.0025112000000000003,
    "MEAN_MOTION_DOT": 0.00141991,
    "MEAN_MOTION_DDOT": 0.0,
    "TLE_LINE1": "1 65930U 25225W   25315.27408154  .00141991  00000+0  25112-2 0  9993",
    "TLE_LINE2": "2 65930  53.1606 356.7339 0001146  78.4347 281.6791 15.49350852  6267",
    "COMMENT": "Grouped by shell and plane from TLE"
  },
  {
    "OBJECT_NAME": "STARLINK-35526",
    "OBJECT_ID": "25225X",
    "EPOCH": "2025-11-11T06:33:11.661696",
    "MEAN_MOTION": 15.49336815,
    "ECCENTRICITY": 0.0001184,
    "INCLINATION": 53.1611,
    "RA_OF_ASC_NODE": 356.7264,
    "ARG_OF_PERICENTER": 354.7116,
    "MEAN_ANOMALY": 5.3881,
    "EPHEMERIS_TYPE": 0,
    "CLASSIFICATION_TYPE": "U",
    "NORAD_CAT_ID": 65931,
    "ELEMENT_SET_NO": 999,
    "REV_AT_EPOCH": 626,
    "BSTAR": 0.0016433,
    "MEAN_MOTION_DOT": 0.00092118,
    "MEAN_MOTION_DDOT": 0.0,
    "TLE_LINE1": "1 65931U 25225X   25315.27305164  .00092118  00000+0  16433-2 0  9993",
    "TLE_LINE2": "2 65931  53.1611 356.7264 0001184 354.7116   5.3881 15.49336815  6261",
    "COMMENT": "Grouped by shell and plane from TLE"
  },
  {
    "OBJECT_NAME": "STARLINK-35436",
    "OBJECT_ID": "25225Y",
    "EPOCH": "2025-11-11T06:32:41.786304",
    "MEAN_MOTION": 15.49448226,
    "ECCENTRICITY": 0.0001358,
    "INCLINATION": 53.1606,
    "RA_OF_ASC_NODE": 356.7249,
    "ARG_OF_PERICENTER": 141.0184,
    "MEAN_ANOMALY": 219.0924,
    "EPHEMERIS_TYPE": 0,
    "CLASSIFICATION_TYPE": "U",
    "NORAD_CAT_ID": 65932,
    "ELEMENT_SET_NO": 999,
    "REV_AT_EPOCH": 626,
    "BSTAR": 0.0030715,
    "MEAN_MOTION_DOT": 0.00175115,
    "MEAN_MOTION_DDOT": 0.0,
    "TLE_LINE1": "1 65932U 25225Y   25315.27270586  .00175115  00000+0  30715-2 0  9991",
    "TLE_LINE2": "2 65932  53.1606 356.7249 0001358 141.0184 219.0924 15.49448226  6266",
    "COMMENT": "Grouped by shell and plane from TLE"
  }
]